STARLINK-30331          
1 57740U 23131J   26068.42143977 -.00001789  00000+0 -55499-4 0  9994
2 57740  43.0033 100.9149 0001185 268.4448  91.6268 15.27577219140736
TROLL                   
1 62658U 25009BB  26068.22522958  .00013174  00000+0  48220-3 0  9994
2 62658  97.3932 150.7169 0001816  59.1850 300.9568 15.28164315118170
